[{"OBJECT_NAME":"STARLINK-4798","OBJECT_ID":"2022-114AS","EPOCH":"2026-03-09T20:27:13.810752","MEAN_MOTION":15.08845946,"ECCENTRICITY":0.00012235,"INCLINATION":53.2167,"RA_OF_ASC_NODE":283.5863,"ARG_OF_PERICENTER":83.0007,"MEAN_ANOMALY":277.1125,"EPHEMERIS_TYPE":0,"CLASSIFICATION_TYPE":"U","NORAD_CAT_ID":53858,"ELEMENT_SET_NO":999,"REV_AT_EPOCH":19313,"BSTAR":0.00019481931,"MEAN_MOTION_DOT":2.815e-5,"MEAN_MOTION_DDOT":0},{"OBJECT_NAME":"CZ-6A DEB","OBJECT_ID":"2022-151KB","EPOCH":"2026-03-09T19:20:41.637408","MEAN_MOTION":14.94061736,"ECCENTRICITY":0.0071589,"INCLINATION":98.7004,"RA_OF_ASC_NODE":166.2159,"ARG_OF_PERICENTER":166.3306,"MEAN_ANOMALY":193.9872,"EPHEMERIS_TYPE":0,"CLASSIFICATION_TYPE":"U","NORAD_CAT_ID":54523,"ELEMENT_SET_NO":999,"REV_AT_EPOCH":17710,"BSTAR":0.0044467837,"MEAN_MOTION_DOT":0.00050189,"MEAN_MOTION_DDOT":0}]
